{
  "type": "FeatureCollection",
  "features": [
    {
      "type": "Feature",
      "properties": {
        "norad_id": 27954,
        "name": "GALAXY 13 (HORIZONS-1)",
        "group": "intelsat",
        "lat": -0.9669914142014925,
        "lon": 1.304805188166366,
        "alt_km": 35786.651496068414,
        "timestamp": "2025-12-24T03:53:29.309892+00:00",
        "meta_object_name": "GALAXY 13 (HORIZONS-1)",
        "meta_object_id": "2003-044A",
        "meta_epoch": "2025-12-23T17:33:18.869760",
        "meta_mean_motion": 1.0027125,
        "meta_eccentricity": 0.0002341,
        "meta_inclination": 0.9652,
        "meta_ra_of_asc_node": 86.3258,
        "meta_arg_of_pericenter": 182.915,
        "meta_mean_anomaly": 296.5742,
        "meta_ephemeris_type": 0,
        "meta_classification_type": "U",
        "meta_norad_cat_id": 27954,
        "meta_element_set_no": 999,
        "meta_rev_at_epoch": 4481,
        "meta_bstar": 0,
        "meta_mean_motion_dot": 1.53e-06,
        "meta_mean_motion_ddot": 0,
        "tle_line1": "1 27954U 03044A   25357.73146840  .00000153  00000+0  00000+0 0  9990",
        "tle_line2": "2 27954   0.9652  86.3258 0002341 182.9150 296.5742  1.00271250 44819"
      },
      "geometry": {
        "type": "Point",
        "coordinates": [
          1.304805188166366,
          -0.9669914142014925
        ]
      }
    },
    {
      "type": "Feature",
      "properties": {
        "norad_id": 28358,
        "name": "INTELSAT 10-02",
        "group": "intelsat",
        "lat": 0.028399760034942507,
        "lon": 150.34911464989494,
        "alt_km": 35789.8326447483,
        "timestamp": "2025-12-24T03:53:29.309905+00:00",
        "meta_object_name": "INTELSAT 10-02",
        "meta_object_id": "2004-022A",
        "meta_epoch": "2025-12-23T02:51:22.948704",
        "meta_mean_motion": 1.00272591,
        "meta_eccentricity": 0.00010506,
        "meta_inclination": 0.0144,
        "meta_ra_of_asc_node": 66.1532,
        "meta_arg_of_pericenter": 239.4749,
        "meta_mean_anomaly": 188.1743,
        "meta_ephemeris_type": 0,
        "meta_classification_type": "U",
        "meta_norad_cat_id": 28358,
        "meta_element_set_no": 999,
        "meta_rev_at_epoch": 7879,
        "meta_bstar": 0,
        "meta_mean_motion_dot": 1.1e-07,
        "meta_mean_motion_ddot": 0,
        "tle_line1": "1 28358U 04022A   25357.11901561  .00000011  00000+0  00000+0 0  9990",
        "tle_line2": "2 28358   0.0144  66.1532 0001050 239.4749 188.1743  1.00272591 78794"
      },
      "geometry": {
        "type": "Point",
        "coordinates": [
          150.34911464989494,
          0.028399760034942507
        ]
      }
    },
    {
      "type": "Feature",
      "properties": {
        "norad_id": 28626,
        "name": "XM-3 (RHYTHM)",
        "group": "intelsat",
        "lat": 0.14865115521118125,
        "lon": -148.71192869307475,
        "alt_km": 36168.13279246418,
        "timestamp": "2025-12-24T03:53:29.309917+00:00",
        "meta_object_name": "XM-3 (RHYTHM)",
        "meta_object_id": "2005-008A",
        "meta_epoch": "2025-12-23T19:28:19.807104",
        "meta_mean_motion": 0.9894996,
        "meta_eccentricity": 0.0002107,
        "meta_inclination": 0.2015,
        "meta_ra_of_asc_node": 82.1428,
        "meta_arg_of_pericenter": 275.4004,
        "meta_mean_anomaly": 88.7984,
        "meta_ephemeris_type": 0,
        "meta_classification_type": "U",
        "meta_norad_cat_id": 28626,
        "meta_element_set_no": 999,
        "meta_rev_at_epoch": 4086,
        "meta_bstar": 0,
        "meta_mean_motion_dot": 9.9e-07,
        "meta_mean_motion_ddot": 0,
        "tle_line1": "1 28626U 05008A   25357.81134036  .00000099  00000+0  00000+0 0  9991",
        "tle_line2": "2 28626   0.2015  82.1428 0002107 275.4004  88.7984  0.98949960 40867"
      },
      "geometry": {
        "type": "Point",
        "coordinates": [
          -148.71192869307475,
          0.14865115521118125
        ]
      }
    },
    {
      "type": "Feature",
      "properties": {
        "norad_id": 28659,
        "name": "DIRECTV 8",
        "group": "intelsat",
        "lat": 0.009596473517045732,
        "lon": 32.29764330578511,
        "alt_km": 35790.44322880355,
        "timestamp": "2025-12-24T03:53:29.309930+00:00",
        "meta_object_name": "DIRECTV 8",
        "meta_object_id": "2005-019A",
        "meta_epoch": "2025-12-23T17:41:55.546080",
        "meta_mean_motion": 1.00271595,
        "meta_eccentricity": 0.0002982,
        "meta_inclination": 0.018,
        "meta_ra_of_asc_node": 23.2581,
        "meta_arg_of_pericenter": 259.0434,
        "meta_mean_anomaly": 316.6613,
        "meta_ephemeris_type": 0,
        "meta_classification_type": "U",
        "meta_norad_cat_id": 28659,
        "meta_element_set_no": 999,
        "meta_rev_at_epoch": 7531,
        "meta_bstar": 0,
        "meta_mean_motion_dot": 2.2e-07,
        "meta_mean_motion_ddot": 0,
        "tle_line1": "1 28659U 05019A   25357.73744845  .00000022  00000+0  00000+0 0  9991",
        "tle_line2": "2 28659   0.0180  23.2581 0002982 259.0434 316.6613  1.00271595 75312"
      },
      "geometry": {
        "type": "Point",
        "coordinates": [
          32.29764330578511,
          0.009596473517045732
        ]
      }
    },
    {
      "type": "Feature",
      "properties": {
        "norad_id": 28702,
        "name": "GALAXY 28 (G-28)",
        "group": "intelsat",
        "lat": -0.8881603020368222,
        "lon": 62.65113199179383,
        "alt_km": 35797.10651988386,
        "timestamp": "2025-12-24T03:53:29.309942+00:00",
        "meta_object_name": "GALAXY 28 (G-28)",
        "meta_object_id": "2005-022A",
        "meta_epoch": "2025-12-20T00:49:30.482112",
        "meta_mean_motion": 1.00271047,
        "meta_eccentricity": 0.00029384,
        "meta_inclination": 2.8382,
        "meta_ra_of_asc_node": 81.1982,
        "meta_arg_of_pericenter": 194.0723,
        "meta_mean_anomaly": 97.2981,
        "meta_ephemeris_type": 0,
        "meta_classification_type": "U",
        "meta_norad_cat_id": 28702,
        "meta_element_set_no": 999,
        "meta_rev_at_epoch": 5017,
        "meta_bstar": 0,
        "meta_mean_motion_dot": -1.65e-06,
        "meta_mean_motion_ddot": 0,
        "tle_line1": "1 28702U 05022A   25354.03438058 -.00000165  00000+0  00000+0 0  9999",
        "tle_line2": "2 28702   2.8382  81.1982 0002938 194.0723  97.2981  1.00271047 50172"
      },
      "geometry": {
        "type": "Point",
        "coordinates": [
          62.65113199179383,
          -0.8881603020368222
        ]
      }
    },
    {
      "type": "Feature",
      "properties": {
        "norad_id": 29236,
        "name": "GALAXY 16 (G-16)",
        "group": "intelsat",
        "lat": 0.021771451342417217,
        "lon": 52.31322218301201,
        "alt_km": 35794.25898434472,
        "timestamp": "2025-12-24T03:53:29.309955+00:00",
        "meta_object_name": "GALAXY 16 (G-16)",
        "meta_object_id": "2006-023A",
        "meta_epoch": "2025-12-23T16:05:04.821216",
        "meta_mean_motion": 1.00271325,
        "meta_eccentricity": 0.000251,
        "meta_inclination": 0.0451,
        "meta_ra_of_asc_node": 194.2073,
        "meta_arg_of_pericenter": 78.9639,
        "meta_mean_anomaly": 321.5434,
        "meta_ephemeris_type": 0,
        "meta_classification_type": "U",
        "meta_norad_cat_id": 29236,
        "meta_element_set_no": 999,
        "meta_rev_at_epoch": 7121,
        "meta_bstar": 0,
        "meta_mean_motion_dot": -1.06e-06,
        "meta_mean_motion_ddot": 0,
        "tle_line1": "1 29236U 06023A   25357.67019469 -.00000106  00000+0  00000+0 0  9993",
        "tle_line2": "2 29236   0.0451 194.2073 0002510  78.9639 321.5434  1.00271325 71214"
      },
      "geometry": {
        "type": "Point",
        "coordinates": [
          52.31322218301201,
          0.021771451342417217
        ]
      }
    },
    {
      "type": "Feature",
      "properties": {
        "norad_id": 29494,
        "name": "DIRECTV 9S",
        "group": "intelsat",
        "lat": -1.0575379780817045,
        "lon": 50.144248172499104,
        "alt_km": 35794.54383004442,
        "timestamp": "2025-12-24T03:53:29.309967+00:00",
        "meta_object_name": "DIRECTV 9S",
        "meta_object_id": "2006-043A",
        "meta_epoch": "2025-12-23T16:04:27.378912",
        "meta_mean_motion": 1.00272016,
        "meta_eccentricity": 0.0002928,
        "meta_inclination": 1.9666,
        "meta_ra_of_asc_node": 83.0964,
        "meta_arg_of_pericenter": 194.5447,
        "meta_mean_anomaly": 314.724,
        "meta_ephemeris_type": 0,
        "meta_classification_type": "U",
        "meta_norad_cat_id": 29494,
        "meta_element_set_no": 999,
        "meta_rev_at_epoch": 4962,
        "meta_bstar": 0,
        "meta_mean_motion_dot": -9.3e-07,
        "meta_mean_motion_ddot": 0,
        "tle_line1": "1 29494U 06043A   25357.66976133 -.00000093  00000+0  00000+0 0  9995",
        "tle_line2": "2 29494   1.9666  83.0964 0002928 194.5447 314.7240  1.00272016 49624"
      },
      "geometry": {
        "type": "Point",
        "coordinates": [
          50.144248172499104,
          -1.0575379780817045
        ]
      }
    }
  ]
}